FENGYUN 1C DEB          
1 31934U 99025CMK 26106.93557295  .00060832  00000+0  22398-2 0  9999
2 31934  98.8561 182.2716 0026533 178.2406 181.8927 15.27287356627404
FENGYUN 1C DEB          
1 31937U 99025CMN 26110.58500987  .00005021  00000+0  54063-3 0  9998
2 31937  99.2531 224.5784 0156332 255.1068 103.2783 14.80483849679749
FENGYUN 1C DEB          
1 31938U 99025CMP 26115.61339651  .00004788  00000+0  33616-3 0  9996
2 31938  98.9069 170.7171 0146832 352.8299   7.0818 14.97392432 11317
FENGYUN 1C DEB          
1 31944U 99025CMV 26116.70405993  .00000785  00000+0  40734-3 0  9999
2 31944  99.2199 272.9078 0150245 346.4113  27.4292 14.12214813648153
FENGYUN 1C DEB          
1 31945U 99025CMW 26116.66527087  .00003108  00000+0  14081-2 0  9991
2 31945  98.9510 199.9296 0058704 260.2164  99.2381 14.21784482971129
FENGYUN 1C DEB          
1 31946U 99025CMX 26115.42489635  .00001956  00000+0  96039-3 0  9994
2 31946  98.8868 180.6132 0081744  29.9969 330.5852 14.17170544659012
FENGYUN 1C DEB          
1 31948U 99025CMZ 26116.70904420  .00003619  00000+0  14379-2 0  9996
2 31948  99.3793 192.3340 0021836   0.3356 150.2814 14.29291241969556
FENGYUN 1C DEB          
1 31949U 99025CNA 26112.18886404  .00000363  00000+0  18626-3 0  9999
2 31949  98.5595  97.7522 0125660 196.3747 163.3352 14.17131909973523
FENGYUN 1C DEB          
1 31955U 99025CNG 26116.67357872  .00008991  00000+0  16109-2 0  9994
2 31955  99.2724  15.6825 0043496 128.5747 263.3620 14.66450909985339
FENGYUN 1C DEB          
1 31959U 99025CNL 26116.38924814  .00008753  00000+0  22913-2 0  9998
2 31959  98.5063 353.3155 0028619 105.1334 255.3028 14.49299545663022
FENGYUN 1C DEB          
1 31964U 99025CNR 26115.64414738  .00009958  00000+0  19814-2 0  9995
2 31964  98.7069 250.9530 0026438 339.5947  20.4194 14.62070256694643
FENGYUN 1C DEB          
1 31966U 99025CNT 26114.20836922  .00004647  00000+0  75245-3 0  9992
2 31966  99.0323 285.4599 0083126 224.9499 134.4955 14.69555466676870
FENGYUN 1C DEB          
1 31972U 99025CNZ 26117.11239991  .00000077  00000+0  71333-4 0  9993
2 31972  99.1879 166.2459 0076723  15.6694  12.6673 14.07593310968658
FENGYUN 1C DEB          
1 31974U 99025CPB 26116.46960819  .00004189  00000+0  15665-2 0  9994
2 31974  98.3780 127.6551 0067925 262.5618  96.7844 14.31040846713489
