[{"OBJECT_NAME":"FENGYUN 1C DEB","OBJECT_ID":"1999-025CMK","EPOCH":"2026-04-16T22:27:13.502880","MEAN_MOTION":15.27287356,"ECCENTRICITY":0.00265339,"INCLINATION":98.8561,"RA_OF_ASC_NODE":182.2716,"ARG_OF_PERICENTER":178.2406,"MEAN_ANOMALY":181.8927,"EPHEMERIS_TYPE":0,"CLASSIFICATION_TYPE":"U","NORAD_CAT_ID":31934,"ELEMENT_SET_NO":999,"REV_AT_EPOCH":62740,"BSTAR":0.0022397619,"MEAN_MOTION_DOT":0.00060832,"MEAN_MOTION_DDOT":0},{"OBJECT_NAME":"FENGYUN 1C DEB","OBJECT_ID":"1999-025CMN","EPOCH":"2026-04-20T14:02:24.852768","MEAN_MOTION":14.80483849,"ECCENTRICITY":0.01563324,"INCLINATION":99.2531,"RA_OF_ASC_NODE":224.5784,"ARG_OF_PERICENTER":255.1068,"MEAN_ANOMALY":103.2783,"EPHEMERIS_TYPE":0,"CLASSIFICATION_TYPE":"U","NORAD_CAT_ID":31937,"ELEMENT_SET_NO":999,"REV_AT_EPOCH":67974,"BSTAR":0.00054063171,"MEAN_MOTION_DOT":5.021e-5,"MEAN_MOTION_DDOT":0},{"OBJECT_NAME":"FENGYUN 1C DEB","OBJECT_ID":"1999-025CMP","EPOCH":"2026-04-25T14:43:17.458464","MEAN_MOTION":14.97392432,"ECCENTRICITY":0.01468324,"INCLINATION":98.9069,"RA_OF_ASC_NODE":170.7171,"ARG_OF_PERICENTER":352.8299,"MEAN_ANOMALY":7.0818,"EPHEMERIS_TYPE":0,"CLASSIFICATION_TYPE":"U","NORAD_CAT_ID":31938,"ELEMENT_SET_NO":999,"REV_AT_EPOCH":1131,"BSTAR":0.00033615633,"MEAN_MOTION_DOT":4.788e-5,"MEAN_MOTION_DDOT":0},{"OBJECT_NAME":"FENGYUN 1C DEB","OBJECT_ID":"1999-025CMV","EPOCH":"2026-04-26T16:53:50.777952","MEAN_MOTION":14.12214813,"ECCENTRICITY":0.01502458,"INCLINATION":99.2199,"RA_OF_ASC_NODE":272.9078,"ARG_OF_PERICENTER":346.4113,"MEAN_ANOMALY":27.4292,"EPHEMERIS_TYPE":0,"CLASSIFICATION_TYPE":"U","NORAD_CAT_ID":31944,"ELEMENT_SET_NO":999,"REV_AT_EPOCH":64815,"BSTAR":0.00040734072,"MEAN_MOTION_DOT":7.85e-6,"MEAN_MOTION_DDOT":0},{"OBJECT_NAME":"FENGYUN 1C DEB","OBJECT_ID":"1999-025CMW","EPOCH":"2026-04-26T15:57:59.403168","MEAN_MOTION":14.21784482,"ECCENTRICITY":0.0058704,"INCLINATION":98.951,"RA_OF_ASC_NODE":199.9296,"ARG_OF_PERICENTER":260.2164,"MEAN_ANOMALY":99.2381,"EPHEMERIS_TYPE":0,"CLASSIFICATION_TYPE":"U","NORAD_CAT_ID":31945,"ELEMENT_SET_NO":999,"REV_AT_EPOCH":97112,"BSTAR":0.0014081214,"MEAN_MOTION_DOT":3.108e-5,"MEAN_MOTION_DDOT":0},{"OBJECT_NAME":"FENGYUN 1C DEB","OBJECT_ID":"1999-025CMX","EPOCH":"2026-04-25T10:11:51.044640","MEAN_MOTION":14.17170544,"ECCENTRICITY":0.00817446,"INCLINATION":98.8868,"RA_OF_ASC_NODE":180.6132,"ARG_OF_PERICENTER":29.9969,"MEAN_ANOMALY":330.5852,"EPHEMERIS_TYPE":0,"CLASSIFICATION_TYPE":"U","NORAD_CAT_ID":31946,"ELEMENT_SET_NO":999,"REV_AT_EPOCH":65901,"BSTAR":0.00096039028,"MEAN_MOTION_DOT":1.956e-5,"MEAN_MOTION_DDOT":0},{"OBJECT_NAME":"FENGYUN 1C DEB","OBJECT_ID":"1999-025CMZ","EPOCH":"2026-04-26T17:01:01.418880","MEAN_MOTION":14.29291241,"ECCENTRICITY":0.00218369,"INCLINATION":99.3793,"RA_OF_ASC_NODE":192.334,"ARG_OF_PERICENTER":0.3356,"MEAN_ANOMALY":150.2814,"EPHEMERIS_TYPE":0,"CLASSIFICATION_TYPE":"U","NORAD_CAT_ID":31948,"ELEMENT_SET_NO":999,"REV_AT_EPOCH":96955,"BSTAR":0.0014379064,"MEAN_MOTION_DOT":3.619e-5,"MEAN_MOTION_DDOT":0},{"OBJECT_NAME":"FENGYUN 1C DEB","OBJECT_ID":"1999-025CNA","EPOCH":"2026-04-22T04:31:57.853056","MEAN_MOTION":14.17131909,"ECCENTRICITY":0.01256603,"INCLINATION":98.5595,"RA_OF_ASC_NODE":97.7522,"ARG_OF_PERICENTER":196.3747,"MEAN_ANOMALY":163.3352,"EPHEMERIS_TYPE":0,"CLASSIFICATION_TYPE":"U","NORAD_CAT_ID":31949,"ELEMENT_SET_NO":999,"REV_AT_EPOCH":97352,"BSTAR":0.00018625905,"MEAN_MOTION_DOT":3.63e-6,"MEAN_MOTION_DDOT":0},{"OBJECT_NAME":"FENGYUN 1C DEB","OBJECT_ID":"1999-025CNG","EPOCH":"2026-04-26T16:09:57.201408","MEAN_MOTION":14.66450909,"ECCENTRICITY":0.00434967,"INCLINATION":99.2724,"RA_OF_ASC_NODE":15.6825,"ARG_OF_PERICENTER":128.5747,"MEAN_ANOMALY":263.362,"EPHEMERIS_TYPE":0,"CLASSIFICATION_TYPE":"U","NORAD_CAT_ID":31955,"ELEMENT_SET_NO":999,"REV_AT_EPOCH":98533,"BSTAR":0.0016108799,"MEAN_MOTION_DOT":8.991e-5,"MEAN_MOTION_DDOT":0},{"OBJECT_NAME":"FENGYUN 1C DEB","OBJECT_ID":"1999-025CNL","EPOCH":"2026-04-26T09:20:31.039296","MEAN_MOTION":14.49299545,"ECCENTRICITY":0.00286193,"INCLINATION":98.5063,"RA_OF_ASC_NODE":353.3155,"ARG_OF_PERICENTER":105.1334,"MEAN_ANOMALY":255.3028,"EPHEMERIS_TYPE":0,"CLASSIFICATION_TYPE":"U","NORAD_CAT_ID":31959,"ELEMENT_SET_NO":999,"REV_AT_EPOCH":66302,"BSTAR":0.0022913297,"MEAN_MOTION_DOT":8.753e-5,"MEAN_MOTION_DDOT":0},{"OBJECT_NAME":"FENGYUN 1C DEB","OBJECT_ID":"1999-025CNR","EPOCH":"2026-04-25T15:27:34.333632","MEAN_MOTION":14.62070256,"ECCENTRICITY":0.00264387,"INCLINATION":98.7069,"RA_OF_ASC_NODE":250.953,"ARG_OF_PERICENTER":339.5947,"MEAN_ANOMALY":20.4194,"EPHEMERIS_TYPE":0,"CLASSIFICATION_TYPE":"U","NORAD_CAT_ID":31964,"ELEMENT_SET_NO":999,"REV_AT_EPOCH":69464,"BSTAR":0.0019813778,"MEAN_MOTION_DOT":9.958e-5,"MEAN_MOTION_DDOT":0},{"OBJECT_NAME":"FENGYUN 1C DEB","OBJECT_ID":"1999-025CNT","EPOCH":"2026-04-24T05:00:03.100608","MEAN_MOTION":14.69555466,"ECCENTRICITY":0.00831268,"INCLINATION":99.0323,"RA_OF_ASC_NODE":285.4599,"ARG_OF_PERICENTER":224.9499,"MEAN_ANOMALY":134.4955,"EPHEMERIS_TYPE":0,"CLASSIFICATION_TYPE":"U","NORAD_CAT_ID":31966,"ELEMENT_SET_NO":999,"REV_AT_EPOCH":67687,"BSTAR":0.00075245368,"MEAN_MOTION_DOT":4.647e-5,"MEAN_MOTION_DDOT":0},{"OBJECT_NAME":"FENGYUN 1C DEB","OBJECT_ID":"1999-025CNZ","EPOCH":"2026-04-27T02:41:51.352224","MEAN_MOTION":14.0759331,"ECCENTRICITY":0.0076724,"INCLINATION":99.1879,"RA_OF_ASC_NODE":166.2459,"ARG_OF_PERICENTER":15.6694,"MEAN_ANOMALY":12.6673,"EPHEMERIS_TYPE":0,"CLASSIFICATION_TYPE":"U","NORAD_CAT_ID":31972,"ELEMENT_SET_NO":999,"REV_AT_EPOCH":96865,"BSTAR":7.1333e-5,"MEAN_MOTION_DOT":7.7e-7,"MEAN_MOTION_DDOT":0},{"OBJECT_NAME":"FENGYUN 1C DEB","OBJECT_ID":"1999-025CPB","EPOCH":"2026-04-26T11:16:14.147616","MEAN_MOTION":14.31040846,"ECCENTRICITY":0.00679256,"INCLINATION":98.378,"RA_OF_ASC_NODE":127.6551,"ARG_OF_PERICENTER":262.5618,"MEAN_ANOMALY":96.7844,"EPHEMERIS_TYPE":0,"CLASSIFICATION_TYPE":"U","NORAD_CAT_ID":31974,"ELEMENT_SET_NO":999,"REV_AT_EPOCH":71348,"BSTAR":0.0015664523,"MEAN_MOTION_DOT":4.189e-5,"MEAN_MOTION_DDOT":0}]
